GSAT0233 (GALILEO 33)   
1 67160U 25302A   26128.32294058  .00000046  00000+0  00000+0 0  9992
2 67160  54.3103 103.2661 0002042 243.3115 287.5301  1.70474543  2445
GSAT0234 (GALILEO 34)   
1 67162U 25302C   26127.44335906  .00000041  00000+0  00000+0 0  9999
2 67162  54.3113 103.2900 0003822 293.6003 237.5257  1.70474609  2487
